O3B FM17                
1 44114U 19020C   26032.39354573 -.00000025  00000+0  00000+0 0  9994
2 44114   0.0435 336.1071 0002787 330.3762  53.4835  5.00115366124739
O3B FM18                
1 44115U 19020D   26032.33982680 -.00000025  00000+0  00000+0 0  9995
2 44115   0.0498 359.8318 0002783 310.5899  49.5466  5.00115196124852
SES-17                  
1 49332U 21095A   26032.12071249 -.00000281  00000+0  00000+0 0  9997
2 49332   0.0199  56.6529 0001132 246.9861 164.0125  1.00268920 16495
SES-22                  
1 52933U 22071A   26032.78863972  .00000094  00000+0  00000+0 0  9998
2 52933   0.0085  42.8003 0001121 267.5213 326.5560  1.00273076  6161
SES-20                  
1 53960U 22123A   26032.61282494 -.00000110  00000+0  00000+0 0  9993
2 53960   0.0134  79.9724 0001011 346.0294 183.2942  1.00269953 12177
SES-21                  
1 53961U 22123B   26032.81225531  .00000060  00000+0  00000+0 0  9998
2 53961   0.0248  42.4929 0000889 275.0162 335.8917  1.00270086  5856
O3B MPOWER F1           
1 54755U 22174A   26032.94589678 -.00000026  00000+0  00000+0 0  9998
2 54755   0.0638 354.3887 0004907 335.0288 263.5516  5.00103080 58594
O3B MPOWER F2           
1 54756U 22174B   26032.38709024 -.00000025  00000+0  00000+0 0  9995
2 54756   0.0645 350.4228 0001797 213.7335 155.8278  5.00731378 58649
SES-18                  
1 55970U 23038A   26032.61282494 -.00000111  00000+0  00000+0 0  9993
2 55970   0.0718 267.1887 0002936  18.4001 323.7100  1.00273405 10747
SES-19                  
1 55971U 23038B   26032.77752995  .00000000  00000+0  00000+0 0  9995
2 55971   0.0181 287.1248 0001892  21.8764 327.9831  1.00268766 10728
O3B MPOWER F4           
1 56367U 23059A   26032.64939996 -.00000025  00000+0  00000+0 0  9990
2 56367   0.0570   9.6445 0006375 318.1707  32.1383  5.00119560 51820
O3B MPOWER F3           
1 56368U 23059B   26022.88567723 -.00000009  00000+0  00000+0 0  9993
2 56368   0.0543  12.4800 0014260 319.1455  28.2939  4.99243546 47468
O3B MPOWER F5           
1 58346U 23175A   26032.58268796 -.00000025  00000+0  00000+0 0  9994
2 58346   0.0376 357.2249 0004148 314.9615  47.7708  5.00115551 42655
O3B MPOWER F6           
1 58347U 23175B   26020.48940165 -.00000012  00000+0  00000+0 0  9994
2 58347   0.0440   0.8814 0005878 281.3856  77.6639  5.00114980 40964
ASTRA 1P (SES-24)       
1 60086U 24115A   26032.88725214  .00000110  00000+0  00000+0 0  9993
2 60086   0.0861 305.5202 0005627 359.5455 165.6046  1.00269928  5842
O3B MPOWER F7           
1 62362U 24244A   26032.54965005 -.00000025  00000+0  00000+0 0  9998
2 62362   0.0655   9.7656 0006210 302.7386  47.4358  5.00115190 19742
O3B MPOWER F8           
1 62363U 24244B   26032.71656213 -.00000025  00000+0  00000+0 0  9996
2 62363   0.0611 320.6486 0006832 346.5953  52.6862  5.00115843 14093
